[{"OBJECT_NAME":"YAOGAN-36 03B","OBJECT_ID":"2022-160C","EPOCH":"2026-03-09T22:41:52.530432","MEAN_MOTION":15.19636671,"ECCENTRICITY":0.00094652,"INCLINATION":34.992,"RA_OF_ASC_NODE":267.4774,"ARG_OF_PERICENTER":342.1848,"MEAN_ANOMALY":17.8533,"EPHEMERIS_TYPE":0,"CLASSIFICATION_TYPE":"U","NORAD_CAT_ID":54374,"ELEMENT_SET_NO":999,"REV_AT_EPOCH":18261,"BSTAR":0.00040085509,"MEAN_MOTION_DOT":8.731e-5,"MEAN_MOTION_DDOT":0},{"OBJECT_NAME":"CO3D 4","OBJECT_ID":"2025-156C","EPOCH":"2026-03-02T06:59:52.721952","MEAN_MOTION":15.20203154,"ECCENTRICITY":2.545e-5,"INCLINATION":97.4334,"RA_OF_ASC_NODE":141.5187,"ARG_OF_PERICENTER":280.3117,"MEAN_ANOMALY":79.8089,"EPHEMERIS_TYPE":0,"CLASSIFICATION_TYPE":"U","NORAD_CAT_ID":64901,"ELEMENT_SET_NO":999,"REV_AT_EPOCH":3329,"BSTAR":6.0250155e-5,"MEAN_MOTION_DOT":1.237e-5,"MEAN_MOTION_DDOT":0}]
